NORAD_CAT_ID,OBJECT_NAME,OBJECT_TYPE,EPOCH,MEAN_MOTION,ECCENTRICITY,INCLINATION,RA_OF_ASC_NODE,ARG_OF_PERICENTER,MEAN_ANOMALY,BSTAR,MEAN_MOTION_DOT,MEAN_MOTION_DDOT,TLE_LINE0,TLE_LINE1,TLE_LINE2,SEMIMAJOR_AXIS,PERIOD,APOGEE,PERIGEE,DECAYED
51871.0,STARLINK-3567,PAYLOAD,2024-05-14 05:26:09,15.08836643,0.000151,53.2163,112.0094,100.0821,260.0341,0.00014636,2.042e-05,0.0,0 STARLINK-3567,1 51871U 22022V   24135.22649383  .00002042  00000-0  14636-3 0  9993,2 51871  53.2163 112.0094 0001510 100.0821 260.0341 15.08836643122847,6917.891,95.438,540.8,538.711,0.0
51871.0,STARLINK-3567,PAYLOAD,2024-05-14 08:36:55,15.0883795,0.0001562,53.2166,111.4154,99.8544,260.2624,0.00014826,2.072e-05,0.0,0 STARLINK-3567,1 51871U 22022V   24135.35897311  .00002072  00000-0  14826-3 0  9997,2 51871  53.2166 111.4154 0001562  99.8544 260.2624 15.08837950122932,6917.887,95.438,540.832,538.671,0.0
51871.0,STARLINK-3567,PAYLOAD,2024-05-14 14:58:27,15.08838898,0.0001606,53.2165,110.2259,101.1464,258.9709,0.00022171,3.242e-05,0.0,0 STARLINK-3567,1 51871U 22022V   24135.62393224  .00003242  00000-0  22171-3 0  9993,2 51871  53.2165 110.2259 0001606 101.1464 258.9709 15.08838898122975,6917.884,95.438,540.86,538.638,0.0
51871.0,STARLINK-3567,PAYLOAD,2024-05-15 05:16:55,15.08841534,0.0001499,53.2172,107.5507,94.7274,265.3889,0.0004339,6.625e-05,0.0,0 STARLINK-3567,1 51871U 22022V   24136.22008841  .00006625  00000-0  43390-3 0  9992,2 51871  53.2172 107.5507 0001499  94.7274 265.3889 15.08841534123067,6917.876,95.437,540.778,538.704,0.0
51871.0,STARLINK-3567,PAYLOAD,2024-05-16 05:07:43,15.08850279,0.000145,53.2164,103.0883,85.1322,274.9836,1.2187e-05,-9.4e-07,0.0,0 STARLINK-3567,1 51871U 22022V   24137.21369338 -.00000094  00000-0  12187-4 0  9999,2 51871  53.2164 103.0883 0001450  85.1322 274.9836 15.08850279123144,6917.849,95.437,540.717,538.711,0.0
51871.0,STARLINK-3567,PAYLOAD,2024-05-16 14:40:01,15.08850324,0.0001796,53.2181,101.3018,83.6314,276.4883,-9.7279e-05,-1.836e-05,0.0,0 STARLINK-3567,1 51871U 22022V   24137.61113406 -.00001836  00000-0 -97279-4 0  9997,2 51871  53.2181 101.3018 0001796  83.6314 276.4883 15.08850324123275,6917.849,95.437,540.956,538.471,0.0
51871.0,STARLINK-3567,PAYLOAD,2024-05-17 14:30:48,15.08841957,0.0001238,53.2172,96.8453,93.8262,266.2872,-1.9838e-05,-6.04e-06,0.0,0 STARLINK-3567,1 51871U 22022V   24138.60472954 -.00000604  00000-0 -19838-4 0  9990,2 51871  53.2172  96.8453 0001238  93.8262 266.2872 15.08841957123426,6917.874,95.437,540.596,538.883,0.0
51871.0,STARLINK-3567,PAYLOAD,2024-05-18 14:21:36,15.08833358,0.0001494,53.2186,92.3803,100.4968,259.6192,-9.0351e-06,-4.32e-06,0.0,0 STARLINK-3567,1 51871U 22022V   24139.59833687 -.00000432  00000-0 -90351-5 0  9992,2 51871  53.2186  92.3803 0001494 100.4968 259.6192 15.08833358123576,6917.901,95.438,540.799,538.732,0.0
51871.0,STARLINK-3567,PAYLOAD,2024-05-19 06:15:26,15.08849524,0.0001409,53.2178,89.4066,102.8602,257.2547,9.24e-06,-1.41e-06,0.0,0 STARLINK-3567,1 51871U 22022V   24140.26072712 -.00000141  00000-0  92400-5 0  9995,2 51871  53.2178  89.4066 0001409 102.8602 257.2547 15.08849524123673,6917.851,95.437,540.691,538.742,0.0
51871.0,STARLINK-3567,PAYLOAD,2024-05-20 02:55:28,15.08845596,0.0001536,53.2181,85.5438,101.1848,258.9317,2.9668e-05,1.84e-06,0.0,0 STARLINK-3567,1 51871U 22022V   24141.12185266  .00000184  00000-0  29668-4 0  9991,2 51871  53.2181  85.5438 0001536 101.1848 258.9317 15.08845596123737,6917.863,95.437,540.791,538.666,0.0
51871.0,STARLINK-3567,PAYLOAD,2024-05-20 20:24:43,15.08835102,0.0001616,53.2191,82.2685,113.925,246.1911,6.8264e-06,-1.79e-06,0.0,0 STARLINK-3567,1 51871U 22022V   24141.85050058 -.00000179  00000-0  68264-5 0  9992,2 51871  53.2191  82.2685 0001616 113.9250 246.1911 15.08835102123846,6917.895,95.438,540.878,538.642,0.0
51871.0,STARLINK-3567,PAYLOAD,2024-05-21 05:57:02,15.08837225,0.0001581,53.2186,80.4861,112.8843,247.2316,2.5554e-06,-2.47e-06,0.0,0 STARLINK-3567,1 51871U 22022V   24142.24793989 -.00000247  00000-0  25554-5 0  9994,2 51871  53.2186  80.4861 0001581 112.8843 247.2316 15.08837225123976,6917.889,95.438,540.848,538.66,0.0
51871.0,STARLINK-3567,PAYLOAD,2024-05-22 02:37:02,15.08846369,0.0001573,53.2185,76.6279,109.5804,250.5358,0.00012304,1.671e-05,0.0,0 STARLINK-3567,1 51871U 22022V   24143.10905422  .00001671  00000-0  12304-3 0  9995,2 51871  53.2185  76.6279 0001573 109.5804 250.5358 15.08846369124036,6917.861,95.437,540.814,538.638,0.0
51871.0,STARLINK-3567,PAYLOAD,2024-05-23 04:03:12,15.08840269,0.0001503,53.2185,71.8659,105.141,254.9749,0.00010654,1.408e-05,0.0,0 STARLINK-3567,1 51871U 22022V   24144.16889945  .00001408  00000-0  10654-3 0  9997,2 51871  53.2185  71.8659 0001503 105.1410 254.9749 15.08840269124195,6917.88,95.438,540.784,538.705,0.0
51871.0,STARLINK-3567,PAYLOAD,2024-05-24 03:53:59,15.08853352,0.0001395,53.2191,67.4059,98.1196,261.9955,5.6484e-05,6.11e-06,0.0,0 STARLINK-3567,1 51871U 22022V   24145.16249413  .00000611  00000-0  56484-4 0  9995,2 51871  53.2191  67.4059 0001395  98.1196 261.9955 15.08853352124417,6917.84,95.437,540.67,538.74,0.0
51871.0,STARLINK-3567,PAYLOAD,2024-05-24 18:12:29,15.08836278,0.0001525,53.2181,64.7288,124.1889,235.9248,-6.9924e-05,-1.401e-05,0.0,0 STARLINK-3567,1 51871U 22022V   24145.75866931 -.00001401  00000-0 -69924-4 0  9993,2 51871  53.2181  64.7288 0001525 124.1889 235.9248 15.08836278124430,6917.892,95.438,540.812,538.702,0.0
51871.0,STARLINK-3567,PAYLOAD,2024-05-25 11:41:44,15.08815458,9.48e-05,53.2178,61.4603,132.366,227.7412,-0.00017811,-3.119e-05,0.0,0 STARLINK-3567,1 51871U 22022V   24146.48732375 -.00003119  00000-0 -17811-3 0  9993,2 51871  53.2178  61.4603 0000948 132.3660 227.7412 15.08815458124548,6917.955,95.439,540.476,539.165,0.0
51871.0,STARLINK-3567,PAYLOAD,2024-05-25 18:03:16,15.08840213,0.0001312,53.2181,60.2711,95.6745,264.4397,-9.01e-05,-1.722e-05,0.0,0 STARLINK-3567,1 51871U 22022V   24146.75227267 -.00001722  00000-0 -90100-4 0  9993,2 51871  53.2181  60.2711 0001312  95.6745 264.4397 15.08840213124581,6917.88,95.438,540.652,538.837,0.0
51871.0,STARLINK-3567,PAYLOAD,2024-05-26 03:35:34,15.08845461,0.000126,53.2173,58.4844,104.581,255.5321,-4.2519e-05,-9.65e-06,0.0,0 STARLINK-3567,1 51871U 22022V   24147.14970604 -.00000965  00000-0 -42519-4 0  9996,2 51871  53.2173  58.4844 0001260 104.5810 255.5321 15.08845461124648,6917.864,95.437,540.6,538.857,0.0
51871.0,STARLINK-3567,PAYLOAD,2024-05-26 22:40:12,15.08842272,0.0001059,53.2185,54.9173,101.9921,258.119,6.6924e-05,7.78e-06,0.0,0 STARLINK-3567,1 51871U 22022V   24147.94458497  .00000778  00000-0  66924-4 0  9991,2 51871  53.2185  54.9173 0001059 101.9921 258.1190 15.08842272124838,6917.873,95.437,540.471,539.006,0.0
51871.0,STARLINK-3567,PAYLOAD,2024-05-27 11:23:16,15.08848874,0.0001346,53.2176,52.5359,116.6363,243.4767,0.00011907,1.608e-05,0.0,0 STARLINK-3567,1 51871U 22022V   24148.47449624  .00001608  00000-0  11907-3 0  9995,2 51871  53.2176  52.5359 0001346 116.6363 243.4767 15.08848874124842,6917.853,95.437,540.649,538.787,0.0
51871.0,STARLINK-3567,PAYLOAD,2024-05-27 20:55:36,15.0884391,0.0001842,53.2182,50.7453,133.8257,226.2888,-3.3922e-05,-8.28e-06,0.0,0 STARLINK-3567,1 51871U 22022V   24148.87194684 -.00000828  00000-0 -33922-4 0  9999,2 51871  53.2182  50.7453 0001842 133.8257 226.2888 15.08843910124904,6917.868,95.437,541.008,538.459,0.0
51871.0,STARLINK-3567,PAYLOAD,2024-05-27 22:30:59,15.08839978,0.0001337,53.2172,50.4525,117.8311,242.2817,-2.5682e-06,-3.29e-06,0.0,0 STARLINK-3567,1 51871U 22022V   24148.93818785 -.00000329  00000-0 -25682-5 0  9992,2 51871  53.2172  50.4525 0001337 117.8311 242.2817 15.08839978124989,6917.88,95.438,540.67,538.821,0.0
51871.0,STARLINK-3567,PAYLOAD,2024-05-28 03:17:08,15.08841755,0.0001298,53.2185,49.5631,98.1771,261.9368,2.1929e-05,6.1e-07,0.0,0 STARLINK-3567,1 51871U 22022V   24149.13690706  .00000061  00000-0  21929-4 0  9996,2 51871  53.2185  49.5631 0001298  98.1771 261.9368 15.08841755125017,6917.875,95.437,540.638,538.842,0.0
51871.0,STARLINK-3567,PAYLOAD,2024-05-28 22:21:46,15.08849913,0.0001269,53.2185,45.9949,88.3527,271.7611,-4.3878e-05,-9.86e-06,0.0,0 STARLINK-3567,1 51871U 22022V   24149.93178298 -.00000986  00000-0 -43878-4 0  9996,2 51871  53.2185  45.9949 0001269  88.3527 271.7611 15.08849913125134,6917.85,95.437,540.593,538.837,0.0
51871.0,STARLINK-3567,PAYLOAD,2024-05-29 03:07:55,15.08848524,0.0001285,53.2189,45.1023,102.1621,257.9515,1.8435e-05,6e-08,0.0,0 STARLINK-3567,1 51871U 22022V   24150.13049982  .00000006  00000-0  18435-4 0  9999,2 51871  53.2189  45.1023 0001285 102.1621 257.9515 15.08848524125092,6917.854,95.437,540.608,538.83,0.0
51871.0,STARLINK-3567,PAYLOAD,2024-05-29 20:37:10,15.08839174,0.0001373,53.2184,41.8334,107.154,252.9603,2.2044e-06,-2.53e-06,0.0,0 STARLINK-3567,1 51871U 22022V   24150.85914740 -.00000253  00000-0  22044-5 0  9998,2 51871  53.2184  41.8334 0001373 107.1540 252.9603 15.08839174125205,6917.883,95.438,540.698,538.798,0.0
51871.0,STARLINK-3567,PAYLOAD,2024-05-29 22:12:33,15.08837727,0.0001278,53.2185,41.5329,89.244,270.8698,-1.9516e-06,-3.19e-06,0.0,0 STARLINK-3567,1 51871U 22022V   24150.92538864 -.00000319  00000-0 -19516-5 0  9999,2 51871  53.2185  41.5329 0001278  89.2440 270.8698 15.08837727125283,6917.887,95.438,540.636,538.868,0.0
51871.0,STARLINK-3567,PAYLOAD,2024-05-30 22:03:20,15.08843746,0.000138,53.2183,37.0703,105.2977,254.8168,-6.0899e-07,-2.98e-06,0.0,0 STARLINK-3567,1 51871U 22022V   24151.91898487 -.00000298  00000-0 -60899-6 0  9996,2 51871  53.2183  37.0703 0001380 105.2977 254.8168 15.08843746125434,6917.869,95.437,540.689,538.779,0.0
51871.0,STARLINK-3567,PAYLOAD,2024-05-31 02:49:30,15.08791918,0.000175,53.2183,36.1791,104.9044,255.2142,0.00067159,0.00010403,0.0,0 STARLINK-3567,1 51871U 22022V   24152.11771699  .00010403  00000-0  67159-3 0  9994,2 51871  53.2183  36.1791 0001750 104.9044 255.2142 15.08791918125398,6918.027,95.441,541.103,538.682,0.0
